start=new Date('%Y-%m-57T00:00:00.000Z').valueOf();
sats=[{"REF_FRAME":"TEME","SEMIMAJOR_AXIS":"6925.361","RA_OF_ASC_NODE":"134.2154","PERIOD":"95.592","GP_ID":"183185332","MEAN_MOTION":"15.06395859","TIME_SYSTEM":"UTC","ECCENTRICITY":"0.00018780","CENTER_NAME":"EARTH","CLASSIFICATION_TYPE":"U","COUNTRY_CODE":"US","TLE_LINE1":"1 45733U 20038D   21233.45119345 -.00000591  00000-0 -20738-4 0  9999","EPOCH":"2021-08-21T10:49:43.114080","SITE":"AFETR","OBJECT_TYPE":"PAYLOAD","MEAN_MOTION_DDOT":"0.0000000000000","MEAN_ANOMALY":"284.3369","TLE_LINE2":"2 45733  53.0549 134.2154 0001878  75.7828 284.3369 15.06395859 65806","EPHEMERIS_TYPE":"0","OBJECT_ID":"2020-038D","FILE":"3100831","APOAPSIS":"548.527","PERIAPSIS":"545.926","ARG_OF_PERICENTER":"75.7828","OBJECT_NAME":"STARLINK-1467","BSTAR":"-0.00002073800000","MEAN_ELEMENT_THEORY":"SGP4","DECAY_DATE":null,"LAUNCH_DATE":"2020-06-13","REV_AT_EPOCH":"6580","RCS_SIZE":"LARGE","MEAN_MOTION_DOT":"-0.00000591","ELEMENT_SET_NO":"999","INCLINATION":"53.0549","NORAD_CAT_ID":"45733"},{"MEAN_ELEMENT_THEORY":"SGP4","OBJECT_NAME":"STARLINK-1468","BSTAR":"-0.00003474700000","ARG_OF_PERICENTER":"67.2736","LAUNCH_DATE":"2020-06-13","DECAY_DATE":null,"REV_AT_EPOCH":"6580","NORAD_CAT_ID":"45734","INCLINATION":"53.0537","ELEMENT_SET_NO":"999","RCS_SIZE":"LARGE","MEAN_MOTION_DOT":"-0.00000799","PERIOD":"95.593","RA_OF_ASC_NODE":"134.2946","SEMIMAJOR_AXIS":"6925.378","REF_FRAME":"TEME","CLASSIFICATION_TYPE":"U","CENTER_NAME":"EARTH","ECCENTRICITY":"0.00020900","MEAN_MOTION":"15.06390326","TIME_SYSTEM":"UTC","GP_ID":"183184080","MEAN_MOTION_DDOT":"0.0000000000000","OBJECT_TYPE":"PAYLOAD","SITE":"AFETR","EPOCH":"2021-08-21T10:23:10.753440","TLE_LINE1":"1 45734U 20038E   21233.43276335 -.00000799  00000-0 -34747-4 0  9996","COUNTRY_CODE":"US","PERIAPSIS":"545.796","APOAPSIS":"548.691","FILE":"3100831","OBJECT_ID":"2020-038E","EPHEMERIS_TYPE":"0","TLE_LINE2":"2 45734  53.0537 134.2946 0002090  67.2736 292.8473 15.06390326 65808","MEAN_ANOMALY":"292.8473"},{"RA_OF_ASC_NODE":"135.3209","PERIOD":"95.593","SEMIMAJOR_AXIS":"6925.367","REF_FRAME":"TEME","CLASSIFICATION_TYPE":"U","CENTER_NAME":"EARTH","ECCENTRICITY":"0.00020540","TIME_SYSTEM":"UTC","MEAN_MOTION":"15.06394139","GP_ID":"183183831","MEAN_MOTION_DDOT":"0.0000000000000","SITE":"AFETR","OBJECT_TYPE":"PAYLOAD","EPOCH":"2021-08-21T04:54:05.680224","TLE_LINE1":"1 45735U 20038F   21233.20423241 -.00000760  00000-0 -32109-4 0  9990","COUNTRY_CODE":"US","PERIAPSIS":"545.809","APOAPSIS":"548.654","FILE":"3100831","OBJECT_ID":"2020-038F","EPHEMERIS_TYPE":"0","TLE_LINE2":"2 45735  53.0543 135.3209 0002054  80.9045 279.2176 15.06394139 65765","MEAN_ANOMALY":"279.2176","MEAN_ELEMENT_THEORY":"SGP4","BSTAR":"-0.00003210900000","OBJECT_NAME":"STARLINK-1471","ARG_OF_PERICENTER":"80.9045","LAUNCH_DATE":"2020-06-13","DECAY_DATE":null,"REV_AT_EPOCH":"6576","NORAD_CAT_ID":"45735","INCLINATION":"53.0543","ELEMENT_SET_NO":"999","MEAN_MOTION_DOT":"-0.00000760","RCS_SIZE":"LARGE"},{"ARG_OF_PERICENTER":"81.5829","MEAN_ELEMENT_THEORY":"SGP4","BSTAR":"0.00008011600000","OBJECT_NAME":"STARLINK-1472","DECAY_DATE":null,"LAUNCH_DATE":"2020-06-13","REV_AT_EPOCH":"6580","MEAN_MOTION_DOT":"0.00000912","RCS_SIZE":"LARGE","INCLINATION":"53.0538","NORAD_CAT_ID":"45736","ELEMENT_SET_NO":"999","REF_FRAME":"TEME","SEMIMAJOR_AXIS":"6925.333","PERIOD":"95.592","RA_OF_ASC_NODE":"134.2307","GP_ID":"183185082","CLASSIFICATION_TYPE":"U","MEAN_MOTION":"15.06405189","TIME_SYSTEM":"UTC","ECCENTRICITY":"0.00019080","CENTER_NAME":"EARTH","TLE_LINE1":"1 45736U 20038G   21233.44749047  .00000912  00000-0  80116-4 0  9990","EPOCH":"2021-08-21T10:44:23.176608","COUNTRY_CODE":"US","MEAN_MOTION_DDOT":"0.0000000000000","OBJECT_TYPE":"PAYLOAD","SITE":"AFETR","TLE_LINE2":"2 45736  53.0538 134.2307 0001908  81.5829 278.5376 15.06405189 65808","EPHEMERIS_TYPE":"0","MEAN_ANOMALY":"278.5376","PERIAPSIS":"545.876","OBJECT_ID":"2020-038G","FILE":"3100831","APOAPSIS":"548.519"},{"PERIOD":"95.592","RA_OF_ASC_NODE":"134.1890","SEMIMAJOR_AXIS":"6925.344","REF_FRAME":"TEME","ECCENTRICITY":"0.00021150","CENTER_NAME":"EARTH","TIME_SYSTEM":"UTC","MEAN_MOTION":"15.06401417","CLASSIFICATION_TYPE":"U","GP_ID":"183184833","OBJECT_TYPE":"PAYLOAD","SITE":"AFETR","MEAN_MOTION_DDOT":"0.0000000000000","COUNTRY_CODE":"US","TLE_LINE1":"1 45738U 20038J   21233.45856055  .00001444  00000-0  11584-3 0  9994","EPOCH":"2021-08-21T11:00:19.631520","APOAPSIS":"548.674","FILE":"3100831","OBJECT_ID":"2020-038J","PERIAPSIS":"545.745","MEAN_ANOMALY":"289.7738","EPHEMERIS_TYPE":"0","TLE_LINE2":"2 45738  53.0551 134.1890 0002115  70.3479 289.7738 15.06401417 65805","BSTAR":"0.00011584000000","OBJECT_NAME":"STARLINK-1474","MEAN_ELEMENT_THEORY":"SGP4","ARG_OF_PERICENTER":"70.3479","LAUNCH_DATE":"2020-06-13","DECAY_DATE":null,"REV_AT_EPOCH":"6580","ELEMENT_SET_NO":"999","NORAD_CAT_ID":"45738","INCLINATION":"53.0551","RCS_SIZE":"LARGE","MEAN_MOTION_DOT":"0.00001444"},{"RCS_SIZE":"LARGE","MEAN_MOTION_DOT":"-0.00000955","INCLINATION":"53.0546","NORAD_CAT_ID":"45739","ELEMENT_SET_NO":"999","REV_AT_EPOCH":"6634","DECAY_DATE":null,"LAUNCH_DATE":"2020-06-13","ARG_OF_PERICENTER":"112.1956","MEAN_ELEMENT_THEORY":"SGP4","OBJECT_NAME":"STARLINK-1475","BSTAR":"-0.00004522900000","TLE_LINE2":"2 45739  53.0546  94.7074 0001388 112.1956 247.9180 15.06389823 66344","EPHEMERIS_TYPE":"0","MEAN_ANOMALY":"247.9180","PERIAPSIS":"546.284","OBJECT_ID":"2020-038K","FILE":"3100831","APOAPSIS":"548.206","EPOCH":"2021-08-21T08:10:28.982208","TLE_LINE1":"1 45739U 20038K   21233.34061322 -.00000955  00000-0 -45229-4 0  9990","COUNTRY_CODE":"US","MEAN_MOTION_DDOT":"0.0000000000000","OBJECT_TYPE":"PAYLOAD","SITE":"AFETR","GP_ID":"183183581","CLASSIFICATION_TYPE":"U","MEAN_MOTION":"15.06389823","TIME_SYSTEM":"UTC","ECCENTRICITY":"0.00013880","CENTER_NAME":"EARTH","REF_FRAME":"TEME","SEMIMAJOR_AXIS":"6925.380","RA_OF_ASC_NODE":"94.7074","PERIOD":"95.593"},{"MEAN_ANOMALY":"292.6680","TLE_LINE2":"2 45740  53.0563 134.1564 0001789  67.4498 292.6680 15.06395723 65804","EPHEMERIS_TYPE":"0","OBJECT_ID":"2020-038L","FILE":"3100831","APOAPSIS":"548.466","PERIAPSIS":"545.988","COUNTRY_CODE":"US","TLE_LINE1":"1 45740U 20038L   21233.46593871  .00000840  00000-0  75277-4 0  9991","EPOCH":"2021-08-21T11:10:57.104544","OBJECT_TYPE":"PAYLOAD","SITE":"AFETR","MEAN_MOTION_DDOT":"0.0000000000000","GP_ID":"183184331","MEAN_MOTION":"15.06395723","TIME_SYSTEM":"UTC","ECCENTRICITY":"0.00017890","CENTER_NAME":"EARTH","CLASSIFICATION_TYPE":"U","REF_FRAME":"TEME","SEMIMAJOR_AXIS":"6925.362","PERIOD":"95.592","RA_OF_ASC_NODE":"134.1564","MEAN_MOTION_DOT":"0.00000840","RCS_SIZE":"LARGE","ELEMENT_SET_NO":"999","INCLINATION":"53.0563","NORAD_CAT_ID":"45740","REV_AT_EPOCH":"6580","DECAY_DATE":null,"LAUNCH_DATE":"2020-06-13","ARG_OF_PERICENTER":"67.4498","BSTAR":"0.00007527700000","OBJECT_NAME":"STARLINK-1479","MEAN_ELEMENT_THEORY":"SGP4"},{"DECAY_DATE":null,"LAUNCH_DATE":"2020-06-13","ARG_OF_PERICENTER":"64.1486","MEAN_ELEMENT_THEORY":"SGP4","BSTAR":"-0.00003661200000","OBJECT_NAME":"STARLINK-1480","MEAN_MOTION_DOT":"-0.00000827","RCS_SIZE":"LARGE","NORAD_CAT_ID":"45741","INCLINATION":"53.0549","ELEMENT_SET_NO":"999","REV_AT_EPOCH":"6581","GP_ID":"183184583","CLASSIFICATION_TYPE":"U","ECCENTRICITY":"0.00019280","CENTER_NAME":"EARTH","MEAN_MOTION":"15.06388753","TIME_SYSTEM":"UTC","SEMIMAJOR_AXIS":"6925.383","REF_FRAME":"TEME","RA_OF_ASC_NODE":"134.2834","PERIOD":"95.593","EPHEMERIS_TYPE":"0","TLE_LINE2":"2 45741  53.0549 134.2834 0001928  64.1486 295.9701 15.06388753 65812","MEAN_ANOMALY":"295.9701","PERIAPSIS":"545.913","APOAPSIS":"548.583","FILE":"3100831","OBJECT_ID":"2020-038M","TLE_LINE1":"1 45741U 20038M   21233.43644954 -.00000827  00000-0 -36612-4 0  9995","EPOCH":"2021-08-21T10:28:29.240256","COUNTRY_CODE":"US","MEAN_MOTION_DDOT":"0.0000000000000","OBJECT_TYPE":"PAYLOAD","SITE":"AFETR"},{"PERIOD":"95.592","RA_OF_ASC_NODE":"134.3141","REF_FRAME":"TEME","SEMIMAJOR_AXIS":"6925.365","CLASSIFICATION_TYPE":"U","MEAN_MOTION":"15.06394544","TIME_SYSTEM":"UTC","ECCENTRICITY":"0.00018710","CENTER_NAME":"EARTH","GP_ID":"183185333","MEAN_MOTION_DDOT":"0.0000000000000","OBJECT_TYPE":"PAYLOAD","SITE":"AFETR","EPOCH":"2021-08-21T10:17:52.272672","TLE_LINE1":"1 45742U 20038N   21233.42907723 -.00000163  00000-0  79792-5 0  9990","COUNTRY_CODE":"US","PERIAPSIS":"545.935","OBJECT_ID":"2020-038N","FILE":"3100831","APOAPSIS":"548.526","TLE_LINE2":"2 45742  53.0539 134.3141 0001871  81.3020 278.8181 15.06394544 65790","EPHEMERIS_TYPE":"0","MEAN_ANOMALY":"278.8181","MEAN_ELEMENT_THEORY":"SGP4","BSTAR":"0.00000797920000","OBJECT_NAME":"STARLINK-1481","ARG_OF_PERICENTER":"81.3020","LAUNCH_DATE":"2020-06-13","DECAY_DATE":null,"REV_AT_EPOCH":"6579","INCLINATION":"53.0539","NORAD_CAT_ID":"45742","ELEMENT_SET_NO":"999","MEAN_MOTION_DOT":"-0.00000163","RCS_SIZE":"LARGE"},{"REV_AT_EPOCH":"6580","ELEMENT_SET_NO":"999","NORAD_CAT_ID":"45743","INCLINATION":"53.0545","RCS_SIZE":"LARGE","MEAN_MOTION_DOT":"0.00000828","BSTAR":"0.00007450500000","OBJECT_NAME":"STARLINK-1483","MEAN_ELEMENT_THEORY":"SGP4","ARG_OF_PERICENTER":"65.3607","LAUNCH_DATE":"2020-06-13","DECAY_DATE":null,"SITE":"AFETR","OBJECT_TYPE":"PAYLOAD","MEAN_MOTION_DDOT":"0.0000000000000","COUNTRY_CODE":"US","EPOCH":"2021-08-21T11:05:37.251744","TLE_LINE1":"1 45743U 20038P   21233.46223671  .00000828  00000-0  74505-4 0  9991","APOAPSIS":"548.535","FILE":"3100831","OBJECT_ID":"2020-038P","PERIAPSIS":"545.868","MEAN_ANOMALY":"294.7583","EPHEMERIS_TYPE":"0","TLE_LINE2":"2 45743  53.0545 134.1657 0001926  65.3607 294.7583 15.06403908 65802","PERIOD":"95.592","RA_OF_ASC_NODE":"134.1657","SEMIMAJOR_AXIS":"6925.337","REF_FRAME":"TEME","ECCENTRICITY":"0.00019260","CENTER_NAME":"EARTH","TIME_SYSTEM":"UTC","MEAN_MOTION":"15.06403908","CLASSIFICATION_TYPE":"U","GP_ID":"183184081"}];
